[Satellite]
VERSION=1.1
NAME=ZHANGZHENG-1 (CSES)
NICKNAME=ZHANGZHENG-1 (CSES)
TLE1=1 43194U 18015C   19317.87713806  .00001056  00000-0  50685-4 0  9997
TLE2=2 43194  97.4123  81.0929 0016733 142.6105 331.9811 15.20925717 98740
STATUS=0
